[{"OBJECT_NAME":"STARLINK-31226","OBJECT_ID":"2024-019F","EPOCH":"2026-03-09T21:42:06.764544","MEAN_MOTION":15.27576188,"ECCENTRICITY":0.00016706,"INCLINATION":43.0009,"RA_OF_ASC_NODE":247.8462,"ARG_OF_PERICENTER":270.2377,"MEAN_ANOMALY":89.8283,"EPHEMERIS_TYPE":0,"CLASSIFICATION_TYPE":"U","NORAD_CAT_ID":58858,"ELEMENT_SET_NO":999,"REV_AT_EPOCH":11911,"BSTAR":5.5508871e-5,"MEAN_MOTION_DOT":1.265e-5,"MEAN_MOTION_DDOT":0},{"OBJECT_NAME":"TRANSPORTER-1 OBJECT Z","OBJECT_ID":"2021-006Z","EPOCH":"2026-03-09T22:55:57.522432","MEAN_MOTION":15.30965056,"ECCENTRICITY":0.00100878,"INCLINATION":97.2377,"RA_OF_ASC_NODE":113.4736,"ARG_OF_PERICENTER":179.6869,"MEAN_ANOMALY":180.438,"EPHEMERIS_TYPE":0,"CLASSIFICATION_TYPE":"U","NORAD_CAT_ID":47436,"ELEMENT_SET_NO":999,"REV_AT_EPOCH":28420,"BSTAR":0.00024088983,"MEAN_MOTION_DOT":7.143e-5,"MEAN_MOTION_DDOT":0}]
